[{"OBJECT_NAME":"STARLINK-3452","OBJECT_ID":"2022-016AG","EPOCH":"2026-03-09T21:18:14.286240","MEAN_MOTION":15.08837099,"ECCENTRICITY":0.00014157,"INCLINATION":53.2173,"RA_OF_ASC_NODE":318.2629,"ARG_OF_PERICENTER":86.1361,"MEAN_ANOMALY":273.9793,"EPHEMERIS_TYPE":0,"CLASSIFICATION_TYPE":"U","NORAD_CAT_ID":51744,"ELEMENT_SET_NO":999,"REV_AT_EPOCH":22359,"BSTAR":0.00028966342,"MEAN_MOTION_DOT":4.325e-5,"MEAN_MOTION_DDOT":0},{"OBJECT_NAME":"DELTA 1 DEB","OBJECT_ID":"1978-026BU","EPOCH":"2026-03-09T11:22:20.910432","MEAN_MOTION":14.96481719,"ECCENTRICITY":0.00669454,"INCLINATION":98.7967,"RA_OF_ASC_NODE":254.5698,"ARG_OF_PERICENTER":166.8222,"MEAN_ANOMALY":193.4765,"EPHEMERIS_TYPE":0,"CLASSIFICATION_TYPE":"U","NORAD_CAT_ID":12227,"ELEMENT_SET_NO":999,"REV_AT_EPOCH":38498,"BSTAR":0.0006297912,"MEAN_MOTION_DOT":7.412e-5,"MEAN_MOTION_DDOT":0}]
